[{"OBJECT_NAME":"STARLINK-4697","OBJECT_ID":"2022-107AC","EPOCH":"2026-03-09T22:38:20.637888","MEAN_MOTION":15.08825939,"ECCENTRICITY":0.00011893,"INCLINATION":53.2161,"RA_OF_ASC_NODE":252.8579,"ARG_OF_PERICENTER":110.2879,"MEAN_ANOMALY":249.8241,"EPHEMERIS_TYPE":0,"CLASSIFICATION_TYPE":"U","NORAD_CAT_ID":53726,"ELEMENT_SET_NO":999,"REV_AT_EPOCH":19445,"BSTAR":-7.7919888e-5,"MEAN_MOTION_DOT":-1.527e-5,"MEAN_MOTION_DDOT":0},{"OBJECT_NAME":"NOAA 17 DEB","OBJECT_ID":"2002-032W","EPOCH":"2026-03-09T23:34:50.358720","MEAN_MOTION":15.06684432,"ECCENTRICITY":0.0012716,"INCLINATION":98.7039,"RA_OF_ASC_NODE":76.0065,"ARG_OF_PERICENTER":104.6864,"MEAN_ANOMALY":255.577,"EPHEMERIS_TYPE":0,"CLASSIFICATION_TYPE":"U","NORAD_CAT_ID":48181,"ELEMENT_SET_NO":999,"REV_AT_EPOCH":26088,"BSTAR":0.0078736038,"MEAN_MOTION_DOT":0.00118919,"MEAN_MOTION_DDOT":0}]
